[{"OBJECT_NAME":"IRIDIUM 113","OBJECT_ID":"2017-039A","EPOCH":"2026-03-09T21:21:34.497504","MEAN_MOTION":14.34222091,"ECCENTRICITY":0.00022411,"INCLINATION":86.4028,"RA_OF_ASC_NODE":3.6669,"ARG_OF_PERICENTER":81.1883,"MEAN_ANOMALY":278.9567,"EPHEMERIS_TYPE":0,"CLASSIFICATION_TYPE":"U","NORAD_CAT_ID":42803,"ELEMENT_SET_NO":999,"REV_AT_EPOCH":45695,"BSTAR":0.00014821747,"MEAN_MOTION_DOT":4.35e-6,"MEAN_MOTION_DDOT":0},{"OBJECT_NAME":"FENGYUN 1C DEB","OBJECT_ID":"1999-025FBU","EPOCH":"2026-03-01T05:16:44.461056","MEAN_MOTION":14.22949203,"ECCENTRICITY":0.0054435,"INCLINATION":98.9968,"RA_OF_ASC_NODE":324.4262,"ARG_OF_PERICENTER":167.6967,"MEAN_ANOMALY":344.5033,"EPHEMERIS_TYPE":0,"CLASSIFICATION_TYPE":"U","NORAD_CAT_ID":47042,"ELEMENT_SET_NO":999,"REV_AT_EPOCH":63637,"BSTAR":0.00023789,"MEAN_MOTION_DOT":4.97e-6,"MEAN_MOTION_DDOT":0}]
